STARLINK-34799          
1 65472U 25195Q   25327.51429286  .00027406  00000+0  93391-3 0  9998
2 65472  53.1611  31.6570 0001220  72.9029 287.2105 15.30203654 13715
STARLINK-34762          
1 65473U 25195R   25327.49107326  .00012679  00000+0  43938-3 0  9992
2 65473  53.1589  31.5097 0001237  97.8668 262.2473 15.30207621 13715
STARLINK-34998          
1 65474U 25195S   25327.47841156  .00037694  00000+0  12781-2 0  9992
2 65474  53.1584  31.4271 0001515 107.2823 252.8343 15.30206335 13714
STARLINK-34832          
1 65475U 25195T   25327.43525789  .00027704  00000+0  94353-3 0  9997
2 65475  53.1596  31.8700 0001425 128.6598 231.4530 15.30216410 13700
STARLINK-35098          
1 65476U 25195U   25328.16668980  .00047530  00000+0  16081-2 0  9990
2 65476  53.1605  27.9515 0001565  96.7164 236.6353 15.30171334  5897
STARLINK-35071          
1 65477U 25195V   25327.43947332  .00016005  00000+0  55170-3 0  9997
2 65477  53.1601  31.8928 0001223  91.2730 268.8410 15.30178161 13701
STARLINK-35093          
1 65478U 25195W   25327.47630051  .00026284  00000+0  89614-3 0  9999
2 65478  53.1584  31.4103 0001284 112.7828 247.3308 15.30209739 13712
STARLINK-35096          
1 65479U 25195X   25327.52683931  .00037247  00000+0  12629-2 0  9993
2 65479  53.1599  31.0150 0001268  91.3854 268.7292 15.30214352 13727
STARLINK-35040          
1 65480U 25195Y   25326.51029535  .00028983  00000+0  98703-3 0  9992
2 65480  53.1592  36.0231 0001184  79.9151 280.1983 15.30194848 13560
STARLINK-35042          
1 65481U 25195Z   25327.50901521  .00033417  00000+0  11351-2 0  9998
2 65481  53.1605  31.6165 0001512  64.2274 295.8883 15.30206197 13711
STARLINK-35038          
1 65482U 25195AA  25327.43420133  .00015004  00000+0  51759-3 0  9995
2 65482  53.1602  31.8372 0001737  68.5232 291.5954 15.30204932 13707
STARLINK-35037          
1 65483U 25195AB  25327.54582950  .00029078  00000+0  98975-3 0  9991
2 65483  53.1586  31.1092 0001300  79.6937 280.4210 15.30209877 13729
STARLINK-35089          
1 65484U 25195AC  25327.45108398  .00031223  00000+0  10617-2 0  9993
2 65484  53.1611  31.9427 0001307  79.2226 280.8922 15.30205552 13701
STARLINK-35143          
1 65485U 25195AD  25327.45835823  .00027363  00000+0  93240-3 0  9998
2 65485  53.1604  31.2766 0001541  72.3484 287.7685 15.30206200 13717
STARLINK-35226          
1 65492U 25198A   25328.00002315  .00050230  00000+0  12594-2 0  9994
2 65492  53.1594  46.8358 0001102  97.5933 105.2208 15.39573762  5910
STARLINK-35242          
1 65493U 25198B   25327.54157863  .00058933  00000+0  14695-2 0  9994
2 65493  53.1588  49.3604 0001417  64.0730 296.0421 15.39671103 12292
STARLINK-35223          
1 65494U 25198C   25327.49481597  .00044438  00000+0  11138-2 0  9997
2 65494  53.1612  49.0617 0001246  86.2597 273.8550 15.39638086 12298
