[{"OBJECT_NAME":"STARLINK-34799","OBJECT_ID":"2025-195Q","EPOCH":"2025-11-23T12:20:34.903104","MEAN_MOTION":15.30203654,"ECCENTRICITY":0.000122,"INCLINATION":53.1611,"RA_OF_ASC_NODE":31.657,"ARG_OF_PERICENTER":72.9029,"MEAN_ANOMALY":287.2105,"EPHEMERIS_TYPE":0,"CLASSIFICATION_TYPE":"U","NORAD_CAT_ID":65472,"ELEMENT_SET_NO":999,"REV_AT_EPOCH":1371,"BSTAR":0.00093391,"MEAN_MOTION_DOT":0.00027406,"MEAN_MOTION_DDOT":0},{"OBJECT_NAME":"STARLINK-34762","OBJECT_ID":"2025-195R","EPOCH":"2025-11-23T11:47:08.729664","MEAN_MOTION":15.30207621,"ECCENTRICITY":0.0001237,"INCLINATION":53.1589,"RA_OF_ASC_NODE":31.5097,"ARG_OF_PERICENTER":97.8668,"MEAN_ANOMALY":262.2473,"EPHEMERIS_TYPE":0,"CLASSIFICATION_TYPE":"U","NORAD_CAT_ID":65473,"ELEMENT_SET_NO":999,"REV_AT_EPOCH":1371,"BSTAR":0.00043938,"MEAN_MOTION_DOT":0.00012679,"MEAN_MOTION_DDOT":0},{"OBJECT_NAME":"STARLINK-34998","OBJECT_ID":"2025-195S","EPOCH":"2025-11-23T11:28:54.758784","MEAN_MOTION":15.30206335,"ECCENTRICITY":0.0001515,"INCLINATION":53.1584,"RA_OF_ASC_NODE":31.4271,"ARG_OF_PERICENTER":107.2823,"MEAN_ANOMALY":252.8343,"EPHEMERIS_TYPE":0,"CLASSIFICATION_TYPE":"U","NORAD_CAT_ID":65474,"ELEMENT_SET_NO":999,"REV_AT_EPOCH":1371,"BSTAR":0.0012781,"MEAN_MOTION_DOT":0.00037694,"MEAN_MOTION_DDOT":0},{"OBJECT_NAME":"STARLINK-34832","OBJECT_ID":"2025-195T","EPOCH":"2025-11-23T10:26:46.281696","MEAN_MOTION":15.3021641,"ECCENTRICITY":0.0001425,"INCLINATION":53.1596,"RA_OF_ASC_NODE":31.87,"ARG_OF_PERICENTER":128.6598,"MEAN_ANOMALY":231.453,"EPHEMERIS_TYPE":0,"CLASSIFICATION_TYPE":"U","NORAD_CAT_ID":65475,"ELEMENT_SET_NO":999,"REV_AT_EPOCH":1370,"BSTAR":0.00094353,"MEAN_MOTION_DOT":0.00027704,"MEAN_MOTION_DDOT":0},{"OBJECT_NAME":"STARLINK-35098","OBJECT_ID":"2025-195U","EPOCH":"2025-11-24T04:00:01.998720","MEAN_MOTION":15.30171334,"ECCENTRICITY":0.0001565,"INCLINATION":53.1605,"RA_OF_ASC_NODE":27.9515,"ARG_OF_PERICENTER":96.7164,"MEAN_ANOMALY":236.6353,"EPHEMERIS_TYPE":0,"CLASSIFICATION_TYPE":"U","NORAD_CAT_ID":65476,"ELEMENT_SET_NO":999,"REV_AT_EPOCH":589,"BSTAR":0.0016081,"MEAN_MOTION_DOT":0.0004753,"MEAN_MOTION_DDOT":0},{"OBJECT_NAME":"STARLINK-35071","OBJECT_ID":"2025-195V","EPOCH":"2025-11-23T10:32:50.494848","MEAN_MOTION":15.30178161,"ECCENTRICITY":0.0001223,"INCLINATION":53.1601,"RA_OF_ASC_NODE":31.8928,"ARG_OF_PERICENTER":91.273,"MEAN_ANOMALY":268.841,"EPHEMERIS_TYPE":0,"CLASSIFICATION_TYPE":"U","NORAD_CAT_ID":65477,"ELEMENT_SET_NO":999,"REV_AT_EPOCH":1370,"BSTAR":0.0005517,"MEAN_MOTION_DOT":0.00016005,"MEAN_MOTION_DDOT":0},{"OBJECT_NAME":"STARLINK-35093","OBJECT_ID":"2025-195W","EPOCH":"2025-11-23T11:25:52.364064","MEAN_MOTION":15.30209739,"ECCENTRICITY":0.0001284,"INCLINATION":53.1584,"RA_OF_ASC_NODE":31.4103,"ARG_OF_PERICENTER":112.7828,"MEAN_ANOMALY":247.3308,"EPHEMERIS_TYPE":0,"CLASSIFICATION_TYPE":"U","NORAD_CAT_ID":65478,"ELEMENT_SET_NO":999,"REV_AT_EPOCH":1371,"BSTAR":0.00089614,"MEAN_MOTION_DOT":0.00026284,"MEAN_MOTION_DDOT":0},{"OBJECT_NAME":"STARLINK-35096","OBJECT_ID":"2025-195X","EPOCH":"2025-11-23T12:38:38.916384","MEAN_MOTION":15.30214352,"ECCENTRICITY":0.0001268,"INCLINATION":53.1599,"RA_OF_ASC_NODE":31.015,"ARG_OF_PERICENTER":91.3854,"MEAN_ANOMALY":268.7292,"EPHEMERIS_TYPE":0,"CLASSIFICATION_TYPE":"U","NORAD_CAT_ID":65479,"ELEMENT_SET_NO":999,"REV_AT_EPOCH":1372,"BSTAR":0.0012629,"MEAN_MOTION_DOT":0.00037247,"MEAN_MOTION_DDOT":0},{"OBJECT_NAME":"STARLINK-35040","OBJECT_ID":"2025-195Y","EPOCH":"2025-11-22T12:14:49.518240","MEAN_MOTION":15.30194848,"ECCENTRICITY":0.00011848,"INCLINATION":53.1592,"RA_OF_ASC_NODE":36.0231,"ARG_OF_PERICENTER":79.9151,"MEAN_ANOMALY":280.1983,"EPHEMERIS_TYPE":0,"CLASSIFICATION_TYPE":"U","NORAD_CAT_ID":65480,"ELEMENT_SET_NO":999,"REV_AT_EPOCH":1356,"BSTAR":0.00098702917,"MEAN_MOTION_DOT":0.00028983,"MEAN_MOTION_DDOT":0},{"OBJECT_NAME":"STARLINK-35042","OBJECT_ID":"2025-195Z","EPOCH":"2025-11-23T12:12:58.914144","MEAN_MOTION":15.30206197,"ECCENTRICITY":0.0001512,"INCLINATION":53.1605,"RA_OF_ASC_NODE":31.6165,"ARG_OF_PERICENTER":64.2274,"MEAN_ANOMALY":295.8883,"EPHEMERIS_TYPE":0,"CLASSIFICATION_TYPE":"U","NORAD_CAT_ID":65481,"ELEMENT_SET_NO":999,"REV_AT_EPOCH":1371,"BSTAR":0.0011351,"MEAN_MOTION_DOT":0.00033417,"MEAN_MOTION_DDOT":0},{"OBJECT_NAME":"STARLINK-35038","OBJECT_ID":"2025-195AA","EPOCH":"2025-11-23T10:25:14.994912","MEAN_MOTION":15.30204932,"ECCENTRICITY":0.0001737,"INCLINATION":53.1602,"RA_OF_ASC_NODE":31.8372,"ARG_OF_PERICENTER":68.5232,"MEAN_ANOMALY":291.5954,"EPHEMERIS_TYPE":0,"CLASSIFICATION_TYPE":"U","NORAD_CAT_ID":65482,"ELEMENT_SET_NO":999,"REV_AT_EPOCH":1370,"BSTAR":0.00051759,"MEAN_MOTION_DOT":0.00015004,"MEAN_MOTION_DDOT":0},{"OBJECT_NAME":"STARLINK-35037","OBJECT_ID":"2025-195AB","EPOCH":"2025-11-23T13:05:59.668800","MEAN_MOTION":15.30209877,"ECCENTRICITY":0.00013,"INCLINATION":53.1586,"RA_OF_ASC_NODE":31.1092,"ARG_OF_PERICENTER":79.6937,"MEAN_ANOMALY":280.421,"EPHEMERIS_TYPE":0,"CLASSIFICATION_TYPE":"U","NORAD_CAT_ID":65483,"ELEMENT_SET_NO":999,"REV_AT_EPOCH":1372,"BSTAR":0.00098975,"MEAN_MOTION_DOT":0.00029078,"MEAN_MOTION_DDOT":0},{"OBJECT_NAME":"STARLINK-35089","OBJECT_ID":"2025-195AC","EPOCH":"2025-11-23T10:49:33.655872","MEAN_MOTION":15.30205552,"ECCENTRICITY":0.0001307,"INCLINATION":53.1611,"RA_OF_ASC_NODE":31.9427,"ARG_OF_PERICENTER":79.2226,"MEAN_ANOMALY":280.8922,"EPHEMERIS_TYPE":0,"CLASSIFICATION_TYPE":"U","NORAD_CAT_ID":65484,"ELEMENT_SET_NO":999,"REV_AT_EPOCH":1370,"BSTAR":0.0010617,"MEAN_MOTION_DOT":0.00031223,"MEAN_MOTION_DDOT":0},{"OBJECT_NAME":"STARLINK-35143","OBJECT_ID":"2025-195AD","EPOCH":"2025-11-23T11:00:02.151072","MEAN_MOTION":15.302062,"ECCENTRICITY":0.0001541,"INCLINATION":53.1604,"RA_OF_ASC_NODE":31.2766,"ARG_OF_PERICENTER":72.3484,"MEAN_ANOMALY":287.7685,"EPHEMERIS_TYPE":0,"CLASSIFICATION_TYPE":"U","NORAD_CAT_ID":65485,"ELEMENT_SET_NO":999,"REV_AT_EPOCH":1371,"BSTAR":0.0009324,"MEAN_MOTION_DOT":0.00027363,"MEAN_MOTION_DDOT":0},{"OBJECT_NAME":"STARLINK-35226","OBJECT_ID":"2025-198A","EPOCH":"2025-11-24T00:00:02.000160","MEAN_MOTION":15.39573762,"ECCENTRICITY":0.0001102,"INCLINATION":53.1594,"RA_OF_ASC_NODE":46.8358,"ARG_OF_PERICENTER":97.5933,"MEAN_ANOMALY":105.2208,"EPHEMERIS_TYPE":0,"CLASSIFICATION_TYPE":"U","NORAD_CAT_ID":65492,"ELEMENT_SET_NO":999,"REV_AT_EPOCH":591,"BSTAR":0.0012594,"MEAN_MOTION_DOT":0.0005023,"MEAN_MOTION_DDOT":0},{"OBJECT_NAME":"STARLINK-35242","OBJECT_ID":"2025-198B","EPOCH":"2025-11-23T12:59:52.393632","MEAN_MOTION":15.39671103,"ECCENTRICITY":0.0001417,"INCLINATION":53.1588,"RA_OF_ASC_NODE":49.3604,"ARG_OF_PERICENTER":64.073,"MEAN_ANOMALY":296.0421,"EPHEMERIS_TYPE":0,"CLASSIFICATION_TYPE":"U","NORAD_CAT_ID":65493,"ELEMENT_SET_NO":999,"REV_AT_EPOCH":1229,"BSTAR":0.0014695,"MEAN_MOTION_DOT":0.00058933,"MEAN_MOTION_DDOT":0},{"OBJECT_NAME":"STARLINK-35223","OBJECT_ID":"2025-198C","EPOCH":"2025-11-23T11:52:32.099808","MEAN_MOTION":15.39638086,"ECCENTRICITY":0.0001246,"INCLINATION":53.1612,"RA_OF_ASC_NODE":49.0617,"ARG_OF_PERICENTER":86.2597,"MEAN_ANOMALY":273.855,"EPHEMERIS_TYPE":0,"CLASSIFICATION_TYPE":"U","NORAD_CAT_ID":65494,"ELEMENT_SET_NO":999,"REV_AT_EPOCH":1229,"BSTAR":0.0011138,"MEAN_MOTION_DOT":0.00044438,"MEAN_MOTION_DDOT":0}]
